{"type": "FeatureCollection", "features": [ {"type": "Feature", "properties": {"norad_id": 40701, "name": "GAOFEN-8", "group": "resource", "lat": 63.65144750508788, "lon": 10.11119529895937, "alt_km": 435.23064516694376, "timestamp": "2025-12-21T16:47:54.386038+00:00", "meta": {"OBJECT_NAME": "GAOFEN-8", "OBJECT_ID": "2015-030A", "EPOCH": "2025-12-21T13:10:43.745088", "MEAN_MOTION": 15.38824071, "ECCENTRICITY": 0.0012036, "INCLINATION": 97.6903, "RA_OF_ASC_NODE": 174.1203, "ARG_OF_PERICENTER": 108.7515, "MEAN_ANOMALY": 251.5037, "EPHEMERIS_TYPE": 0, "CLASSIFICATION_TYPE": "U", "NORAD_CAT_ID": 40701, "ELEMENT_SET_NO": 999, "REV_AT_EPOCH": 58406, "BSTAR": 0.00042837, "MEAN_MOTION_DOT": 0.00016414, "MEAN_MOTION_DDOT": 0}, "tle": {"line1": "1 40701U 15030A   25355.54911742  .00016414  00000+0  42837-3 0  9996", "line2": "2 40701  97.6903 174.1203 0012036 108.7515 251.5037 15.38824071584060"}}, "geometry": {"type": "Point", "coordinates": [10.11119529895937, 63.65144750508788]}}, {"type": "Feature", "properties": {"norad_id": 40718, "name": "CARBONITE 1 (CBNT-1)", "group": "resource", "lat": 44.32684770910834, "lon": 168.8152295433856, "alt_km": 619.9269568136506, "timestamp": "2025-12-21T16:47:54.386048+00:00", "meta": {"OBJECT_NAME": "CARBONITE 1 (CBNT-1)", "OBJECT_ID": "2015-032D", "EPOCH": "2025-12-21T11:44:16.205280", "MEAN_MOTION": 14.82781907, "ECCENTRICITY": 0.0015035, "INCLINATION": 97.6396, "RA_OF_ASC_NODE": 176.1472, "ARG_OF_PERICENTER": 152.8178, "MEAN_ANOMALY": 207.3827, "EPHEMERIS_TYPE": 0, "CLASSIFICATION_TYPE": "U", "NORAD_CAT_ID": 40718, "ELEMENT_SET_NO": 999, "REV_AT_EPOCH": 56300, "BSTAR": 0.00021502, "MEAN_MOTION_DOT": 1.691e-05, "MEAN_MOTION_DDOT": 0}, "tle": {"line1": "1 40718U 15032D   25355.48907645  .00001691  00000+0  21502-3 0  9993", "line2": "2 40718  97.6396 176.1472 0015035 152.8178 207.3827 14.82781907563006"}}, "geometry": {"type": "Point", "coordinates": [168.8152295433856, 44.32684770910834]}}, {"type": "Feature", "properties": {"norad_id": 40878, "name": "YAOGAN-27", "group": "resource", "lat": 44.389747239455176, "lon": 174.9630933240112, "alt_km": 1199.5874438083038, "timestamp": "2025-12-21T16:47:54.386059+00:00", "meta": {"OBJECT_NAME": "YAOGAN-27", "OBJECT_ID": "2015-040A", "EPOCH": "2025-12-21T12:28:00.478272", "MEAN_MOTION": 13.16059293, "ECCENTRICITY": 0.0007586, "INCLINATION": 100.1006, "RA_OF_ASC_NODE": 344.7422, "ARG_OF_PERICENTER": 265.218, "MEAN_ANOMALY": 94.8067, "EPHEMERIS_TYPE": 0, "CLASSIFICATION_TYPE": "U", "NORAD_CAT_ID": 40878, "ELEMENT_SET_NO": 999, "REV_AT_EPOCH": 49429, "BSTAR": -0.00092294, "MEAN_MOTION_DOT": -3.93e-06, "MEAN_MOTION_DDOT": 0}, "tle": {"line1": "1 40878U 15040A   25355.51944998 -.00000393  00000+0 -92294-3 0  9991", "line2": "2 40878 100.1006 344.7422 0007586 265.2180  94.8067 13.16059293494294"}}, "geometry": {"type": "Point", "coordinates": [174.9630933240112, 44.389747239455176]}}, {"type": "Feature", "properties": {"norad_id": 40894, "name": "GAOFEN-9 01", "group": "resource", "lat": -44.62411363127273, "lon": 41.89427306711981, "alt_km": 615.9989319733904, "timestamp": "2025-12-21T16:47:54.386069+00:00", "meta": {"OBJECT_NAME": "GAOFEN-9 01", "OBJECT_ID": "2015-047A", "EPOCH": "2025-12-21T12:08:27.199104", "MEAN_MOTION": 14.82442218, "ECCENTRICITY": 0.0027679, "INCLINATION": 97.6531, "RA_OF_ASC_NODE": 34.0824, "ARG_OF_PERICENTER": 6.0658, "MEAN_ANOMALY": 354.0886, "EPHEMERIS_TYPE": 0, "CLASSIFICATION_TYPE": "U", "NORAD_CAT_ID": 40894, "ELEMENT_SET_NO": 999, "REV_AT_EPOCH": 55386, "BSTAR": 0.00011761, "MEAN_MOTION_DOT": 8.98e-06, "MEAN_MOTION_DDOT": 0}, "tle": {"line1": "1 40894U 15047A   25355.50587036  .00000898  00000+0  11761-3 0  9999", "line2": "2 40894  97.6531  34.0824 0027679   6.0658 354.0886 14.82442218553862"}}, "geometry": {"type": "Point", "coordinates": [41.89427306711981, -44.62411363127273]}}, {"type": "Feature", "properties": {"norad_id": 41026, "name": "YAOGAN-28", "group": "resource", "lat": 18.455025882988764, "lon": 130.794486311253, "alt_km": 491.04378085298504, "timestamp": "2025-12-21T16:47:54.386080+00:00", "meta": {"OBJECT_NAME": "YAOGAN-28", "OBJECT_ID": "2015-064A", "EPOCH": "2025-12-21T13:33:59.118048", "MEAN_MOTION": 15.2448362, "ECCENTRICITY": 0.0012646, "INCLINATION": 97.2814, "RA_OF_ASC_NODE": 133.1092, "ARG_OF_PERICENTER": 97.997, "MEAN_ANOMALY": 262.2703, "EPHEMERIS_TYPE": 0, "CLASSIFICATION_TYPE": "U", "NORAD_CAT_ID": 41026, "ELEMENT_SET_NO": 999, "REV_AT_EPOCH": 56359, "BSTAR": 0.000252, "MEAN_MOTION_DOT": 6.136e-05, "MEAN_MOTION_DDOT": 0}, "tle": {"line1": "1 41026U 15064A   25355.56526757  .00006136  00000+0  25200-3 0  9999", "line2": "2 41026  97.2814 133.1092 0012646  97.9970 262.2703 15.24483620563590"}}, "geometry": {"type": "Point", "coordinates": [130.794486311253, 18.455025882988764]}}, {"type": "Feature", "properties": {"norad_id": 41038, "name": "YAOGAN-29", "group": "resource", "lat": -37.60668984679353, "lon": -167.33508932186572, "alt_km": 626.3775625425869, "timestamp": "2025-12-21T16:47:54.386090+00:00", "meta": {"OBJECT_NAME": "YAOGAN-29", "OBJECT_ID": "2015-069A", "EPOCH": "2025-12-21T12:34:46.975584", "MEAN_MOTION": 14.82891979, "ECCENTRICITY": 5.37e-05, "INCLINATION": 98.0208, "RA_OF_ASC_NODE": 18.7241, "ARG_OF_PERICENTER": 170.4695, "MEAN_ANOMALY": 189.6528, "EPHEMERIS_TYPE": 0, "CLASSIFICATION_TYPE": "U", "NORAD_CAT_ID": 41038, "ELEMENT_SET_NO": 999, "REV_AT_EPOCH": 54429, "BSTAR": 4.1532e-05, "MEAN_MOTION_DOT": 2.82e-06, "MEAN_MOTION_DDOT": 0}, "tle": {"line1": "1 41038U 15069A   25355.52415481  .00000282  00000+0  41532-4 0  9997", "line2": "2 41038  98.0208  18.7241 0000537 170.4695 189.6528 14.82891979544296"}}, "geometry": {"type": "Point", "coordinates": [-167.33508932186572, -37.60668984679353]}}, {"type": "Feature", "properties": {"norad_id": 41167, "name": "KENT RIDGE 1", "group": "resource", "lat": 13.735558681405655, "lon": -149.2446678839595, "alt_km": 501.76828210595886, "timestamp": "2025-12-21T16:47:54.386101+00:00", "meta": {"OBJECT_NAME": "KENT RIDGE 1", "OBJECT_ID": "2015-077B", "EPOCH": "2025-12-21T02:20:52.336608", "MEAN_MOTION": 15.21694895, "ECCENTRICITY": 0.0008535, "INCLINATION": 14.9784, "RA_OF_ASC_NODE": 149.1191, "ARG_OF_PERICENTER": 249.0242, "MEAN_ANOMALY": 110.9166, "EPHEMERIS_TYPE": 0, "CLASSIFICATION_TYPE": "U", "NORAD_CAT_ID": 41167, "ELEMENT_SET_NO": 999, "REV_AT_EPOCH": 55391, "BSTAR": 0.00011767665, "MEAN_MOTION_DOT": 3.496e-05, "MEAN_MOTION_DDOT": 0}, "tle": {"line1": "1 41167U 15077B   25355.09782797  .00003496  00000+0  11768-3 0  9995", "line2": "2 41167  14.9784 149.1191 0008535 249.0242 110.9166 15.21694895553911"}}, "geometry": {"type": "Point", "coordinates": [-149.2446678839595, 13.735558681405655]}}, {"type": "Feature", "properties": {"norad_id": 41194, "name": "GAOFEN-4", "group": "resource", "lat": 0.047314070422335174, "lon": 88.17126487695622, "alt_km": 35785.3398428847, "timestamp": "2025-12-21T16:47:54.386113+00:00", "meta": {"OBJECT_NAME": "GAOFEN-4", "OBJECT_ID": "2015-083A", "EPOCH": "2025-12-19T15:27:26.627616", "MEAN_MOTION": 1.00273138, "ECCENTRICITY": 0.0002945, "INCLINATION": 0.1878, "RA_OF_ASC_NODE": 81.7841, "ARG_OF_PERICENTER": 93.4275, "MEAN_ANOMALY": 250.8523, "EPHEMERIS_TYPE": 0, "CLASSIFICATION_TYPE": "U", "NORAD_CAT_ID": 41194, "ELEMENT_SET_NO": 999, "REV_AT_EPOCH": 3672, "BSTAR": 0, "MEAN_MOTION_DOT": -3.11e-06, "MEAN_MOTION_DDOT": 0}, "tle": {"line1": "1 41194U 15083A   25353.64405819 -.00000311  00000+0  00000+0 0  9995", "line2": "2 41194   0.1878  81.7841 0002945  93.4275 250.8523  1.00273138 36722"}}, "geometry": {"type": "Point", "coordinates": [88.17126487695622, 0.047314070422335174]}}, {"type": "Feature", "properties": {"norad_id": 41240, "name": "JASON-3", "group": "resource", "lat": 64.79441644871754, "lon": -150.16225643694528, "alt_km": 1309.2571189760702, "timestamp": "2025-12-21T16:47:54.386125+00:00", "meta": {"OBJECT_NAME": "JASON-3", "OBJECT_ID": "2016-002A", "EPOCH": "2025-12-21T10:46:54.719616", "MEAN_MOTION": 12.87626899, "ECCENTRICITY": 0.0007236, "INCLINATION": 66.04, "RA_OF_ASC_NODE": 139.5133, "ARG_OF_PERICENTER": 271.3028, "MEAN_ANOMALY": 88.7162, "EPHEMERIS_TYPE": 0, "CLASSIFICATION_TYPE": "U", "NORAD_CAT_ID": 41240, "ELEMENT_SET_NO": 999, "REV_AT_EPOCH": 46436, "BSTAR": -3.774e-06, "MEAN_MOTION_DOT": -6.3e-07, "MEAN_MOTION_DDOT": 0}, "tle": {"line1": "1 41240U 16002A   25355.44924444 -.00000063  00000+0 -37740-5 0  9991", "line2": "2 41240  66.0400 139.5133 0007236 271.3028  88.7162 12.87626899464368"}}, "geometry": {"type": "Point", "coordinates": [-150.16225643694528, 64.79441644871754]}}, {"type": "Feature", "properties": {"norad_id": 41335, "name": "SENTINEL-3A", "group": "resource", "lat": -81.27036341066038, "lon": 159.06713630926336, "alt_km": 810.6428637073495, "timestamp": "2025-12-21T16:47:54.386135+00:00", "meta": {"OBJECT_NAME": "SENTINEL-3A", "OBJECT_ID": "2016-011A", "EPOCH": "2025-12-21T10:29:36.069792", "MEAN_MOTION": 14.26733836, "ECCENTRICITY": 8.96e-05, "INCLINATION": 98.6302, "RA_OF_ASC_NODE": 60.3283, "ARG_OF_PERICENTER": 94.5741, "MEAN_ANOMALY": 265.5542, "EPHEMERIS_TYPE": 0, "CLASSIFICATION_TYPE": "U", "NORAD_CAT_ID": 41335, "ELEMENT_SET_NO": 999, "REV_AT_EPOCH": 51271, "BSTAR": 6.4452e-05, "MEAN_MOTION_DOT": 1.12e-06, "MEAN_MOTION_DDOT": 0}, "tle": {"line1": "1 41335U 16011A   25355.43722303  .00000112  00000+0  64452-4 0  9997", "line2": "2 41335  98.6302  60.3283 0000896  94.5741 265.5542 14.26733836512719"}}, "geometry": {"type": "Point", "coordinates": [159.06713630926336, -81.27036341066038]}}]}